{"type":"FeatureCollection","features":[{"type":"Feature","geometry":{"type":"Point","coordinates":[83.992,28.52]},"properties":{"nm":"Unknown","yr":1560,"typ":"Supraglacial","basin":"Seti"}},{"type":"Feature","geometry":{"type":"Point","coordinates":[88.03762,27.82935]},"properties":{"nm":"Lhonak (Ghunsa 1)","yr":1921,"typ":"Supraglacial","basin":"Tamor"}},{"type":"Feature","geometry":{"type":"Point","coordinates":[87.75,27.82]},"properties":{"nm":"Tiptola (Olangchun Gola 1)","yr":1963,"typ":"Moraine dammed","basin":"Tamor"}},{"type":"Feature","geometry":{"type":"Point","coordinates":[87.75,27.82]},"properties":{"nm":"Tiptola (Olangchun Gola 2)","yr":1968,"typ":"Moraine dammed","basin":"Tamor"}},{"type":"Feature","geometry":{"type":"Point","coordinates":[86.839,27.828]},"properties":{"nm":"Nare ","yr":1977,"typ":"Supraglacial","basin":"Dudh Koshi"}},{"type":"Feature","geometry":{"type":"Point","coordinates":[87.867,27.869]},"properties":{"nm":"Nagma Pokhari (Phuchan)","yr":1980,"typ":"Moraine dammed","basin":"Tamor"}},{"type":"Feature","geometry":{"type":"Point","coordinates":[83.867,29.307]},"properties":{"nm":"Unknown","yr":1985,"typ":"Water pocket","basin":"Kali Gandaki"}},{"type":"Feature","geometry":{"type":"Point","coordinates":[86.594,27.874]},"properties":{"nm":"Dig Tsho","yr":1985,"typ":"Moraine dammed","basin":"Dudh Koshi"}},{"type":"Feature","geometry":{"type":"Point","coordinates":[88.02714,27.58596]},"properties":{"nm":"Shimbuwa","yr":1986,"typ":"Supraglacial","basin":"Tamor"}},{"type":"Feature","geometry":{"type":"Point","coordinates":[83.86815,29.28812]},"properties":{"nm":"Unnamed","yr":1988,"typ":"Moraine dammed","basin":"Kali Gandaki"}},{"type":"Feature","geometry":{"type":"Point","coordinates":[86.467,27.887]},"properties":{"nm":"Chubung","yr":1991,"typ":"Supraglacial","basin":"Tama Koshi"}},{"type":"Feature","geometry":{"type":"Point","coordinates":[86.845,27.742]},"properties":{"nm":"Sabai Tsho/ Tam Pokhari","yr":1998,"typ":"Moraine dammed","basin":"Dudh Koshi"}},{"type":"Feature","geometry":{"type":"Point","coordinates":[81.475,30.27]},"properties":{"nm":"Unknown","yr":2004,"typ":"Supraglacial","basin":"Humla"}},{"type":"Feature","geometry":{"type":"Point","coordinates":[81.475,30.27]},"properties":{"nm":"Unknown","yr":2006,"typ":"Supraglacial","basin":"Humla"}},{"type":"Feature","geometry":{"type":"Point","coordinates":[81.475,30.27]},"properties":{"nm":"Unknown","yr":2007,"typ":"Supraglacial","basin":"Humla"}},{"type":"Feature","geometry":{"type":"Point","coordinates":[81.475,30.27]},"properties":{"nm":"Unknown","yr":2008,"typ":"Supraglacial","basin":"Humla"}},{"type":"Feature","geometry":{"type":"Point","coordinates":[81.475,30.27]},"properties":{"nm":"Unknown","yr":2009,"typ":"Supraglacial","basin":"Humla"}},{"type":"Feature","geometry":{"type":"Point","coordinates":[81.475,30.27]},"properties":{"nm":"Unknown","yr":2011,"typ":"Supraglacial","basin":"Humla"}},{"type":"Feature","geometry":{"type":"Point","coordinates":[86.594,27.874]},"properties":{"nm":"Dig Tsho","yr":2015,"typ":"Moraine dammed","basin":"Dudh Koshi"}},{"type":"Feature","geometry":{"type":"Point","coordinates":[86.92222,27.75944]},"properties":{"nm":"Unnamed","yr":2015,"typ":"Moraine dammed","basin":"Dudh Koshi"}},{"type":"Feature","geometry":{"type":"Point","coordinates":[86.891,27.906]},"properties":{"nm":"Unknown","yr":2015,"typ":"Supraglacial","basin":"Dudh Koshi"}},{"type":"Feature","geometry":{"type":"Point","coordinates":[86.891,27.906]},"properties":{"nm":"Unknown","yr":2016,"typ":"Supraglacial","basin":"Dudh Koshi"}},{"type":"Feature","geometry":{"type":"Point","coordinates":[87.141,27.814]},"properties":{"nm":"Langmale ","yr":2017,"typ":"Moraine dammed","basin":"Arun"}},{"type":"Feature","geometry":{"type":"Point","coordinates":[86.81806,27.98128]},"properties":{"nm":"Unknown","yr":2017,"typ":"Supraglacial","basin":"Dudh Koshi"}},{"type":"Feature","geometry":{"type":"Point","coordinates":[81.034,30.159]},"properties":{"nm":"Unnamed","yr":null,"typ":"Moraine dammed","basin":"Kali"}},{"type":"Feature","geometry":{"type":"Point","coordinates":[81.295,30.03]},"properties":{"nm":"Unnamed","yr":null,"typ":"Moraine dammed","basin":"West Seti"}},{"type":"Feature","geometry":{"type":"Point","coordinates":[81.578,29.897]},"properties":{"nm":"Kritika Kunda","yr":null,"typ":"Moraine dammed","basin":"Kawari"}},{"type":"Feature","geometry":{"type":"Point","coordinates":[81.878,30.252]},"properties":{"nm":"Unknown","yr":null,"typ":"Supraglacial","basin":"Humla"}},{"type":"Feature","geometry":{"type":"Point","coordinates":[82.044,29.994]},"properties":{"nm":"Unnamed","yr":null,"typ":"Moraine dammed","basin":"Humla"}},{"type":"Feature","geometry":{"type":"Point","coordinates":[82.451,29.875]},"properties":{"nm":"Unnamed","yr":null,"typ":"Moraine dammed","basin":"Humla"}},{"type":"Feature","geometry":{"type":"Point","coordinates":[82.805,29.644]},"properties":{"nm":"Unknown","yr":null,"typ":"Supraglacial","basin":"Mugu "}},{"type":"Feature","geometry":{"type":"Point","coordinates":[83.12,28.816]},"properties":{"nm":"Unknown","yr":null,"typ":"Moraine dammed","basin":"Bheri"}},{"type":"Feature","geometry":{"type":"Point","coordinates":[83.744,29.198]},"properties":{"nm":"Unnamed","yr":null,"typ":"Moraine dammed","basin":"Kali Gandaki"}},{"type":"Feature","geometry":{"type":"Point","coordinates":[83.997,28.744]},"properties":{"nm":"Unnamed","yr":null,"typ":"Moraine dammed","basin":"Marsyangdi"}},{"type":"Feature","geometry":{"type":"Point","coordinates":[86.5898,27.7812]},"properties":{"nm":"Unnamed","yr":null,"typ":"Moraine dammed","basin":"Dudh Koshi"}},{"type":"Feature","geometry":{"type":"Point","coordinates":[86.7452,27.9205]},"properties":{"nm":"Unnamed","yr":null,"typ":"Moraine dammed","basin":"Dudh Koshi"}},{"type":"Feature","geometry":{"type":"Point","coordinates":[86.7779,27.9518]},"properties":{"nm":"Unnamed","yr":null,"typ":"Moraine dammed","basin":"Dudh Koshi"}},{"type":"Feature","geometry":{"type":"Point","coordinates":[86.8722,27.737]},"properties":{"nm":"Unnamed","yr":null,"typ":"Moraine dammed","basin":"Dudh Koshi"}},{"type":"Feature","geometry":{"type":"Point","coordinates":[86.9122,27.9057]},"properties":{"nm":"Chokarma Tsho","yr":null,"typ":"Moraine dammed","basin":"Dudh Koshi"}},{"type":"Feature","geometry":{"type":"Point","coordinates":[86.9438,27.754]},"properties":{"nm":"Unnamed","yr":null,"typ":"Moraine dammed","basin":"Dudh Koshi"}},{"type":"Feature","geometry":{"type":"Point","coordinates":[86.9568,27.8101]},"properties":{"nm":"Unknown","yr":null,"typ":"Moraine dammed","basin":"Dudh Koshi"}},{"type":"Feature","geometry":{"type":"Point","coordinates":[86.966,27.799]},"properties":{"nm":"Unnamed","yr":null,"typ":"Moraine dammed","basin":"Dudh Koshi"}},{"type":"Feature","geometry":{"type":"Point","coordinates":[87.081,27.843]},"properties":{"nm":"Barun ","yr":null,"typ":"Moraine dammed","basin":"Arun"}},{"type":"Feature","geometry":{"type":"Point","coordinates":[87.09481,27.829]},"properties":{"nm":"Barun ","yr":null,"typ":"Moraine dammed","basin":"Arun"}},{"type":"Feature","geometry":{"type":"Point","coordinates":[87.1283,27.8018]},"properties":{"nm":"Unnamed","yr":null,"typ":"Moraine dammed","basin":"Arun"}},{"type":"Feature","geometry":{"type":"Point","coordinates":[87.6299,27.672]},"properties":{"nm":"Unnamed","yr":null,"typ":"Moraine dammed","basin":"Tamor"}},{"type":"Feature","geometry":{"type":"Point","coordinates":[87.8298,27.8835]},"properties":{"nm":"Unknown","yr":null,"typ":"Moraine dammed","basin":"Tamor"}},{"type":"Feature","geometry":{"type":"Point","coordinates":[87.87497,27.76987]},"properties":{"nm":"Jaritar","yr":null,"typ":"Supraglacial","basin":"Tamor"}},{"type":"Feature","geometry":{"type":"Point","coordinates":[87.8952,27.7047]},"properties":{"nm":"Unnamed","yr":null,"typ":"Moraine dammed","basin":"Tamor"}},{"type":"Feature","geometry":{"type":"Point","coordinates":[87.9362,27.7827]},"properties":{"nm":"Unnamed","yr":null,"typ":"Moraine dammed","basin":"Tamor"}},{"type":"Feature","geometry":{"type":"Point","coordinates":[88.02664,27.76626]},"properties":{"nm":"Khangpachen","yr":null,"typ":"Supraglacial","basin":"Tamor"}},{"type":"Feature","geometry":{"type":"Point","coordinates":[88.0787,27.8349]},"properties":{"nm":"Unnamed","yr":null,"typ":"Moraine dammed","basin":"Tamor"}},{"type":"Feature","geometry":{"type":"Point","coordinates":[81.665,30.164]},"properties":{"nm":"Unnamed","yr":null,"typ":"Moraine dammed","basin":"Humla"}},{"type":"Feature","geometry":{"type":"Point","coordinates":[85.515,28.131]},"properties":{"nm":"Pemdang Pokhari","yr":2021,"typ":"Moraine dammed","basin":"Indrawati"}},{"type":"Feature","geometry":{"type":"Point","coordinates":[84.63122,28.5969]},"properties":{"nm":"Birendra Taal","yr":2024,"typ":"Moraine dammed","basin":"Budhi Gandaki"}},{"type":"Feature","geometry":{"type":"Point","coordinates":[86.5701,27.82611]},"properties":{"nm":"Upper Ngole Cho","yr":2024,"typ":"Moraine dammed","basin":"Dudh Koshi"}},{"type":"Feature","geometry":{"type":"Point","coordinates":[86.5701,27.82611]},"properties":{"nm":"Lower Ngole Cho","yr":2024,"typ":"Moraine dammed","basin":"Dudh Koshi"}},{"type":"Feature","geometry":{"type":"Point","coordinates":[83.81993,29.28776]},"properties":{"nm":"Unknown","yr":2025,"typ":"Ice dammed","basin":"Kali Gandaki"}}]}